[
    {
        "Altitude(m)": 707700.0121500121,
        "Argument of Periapsis(deg)": 0.010251109067964361,
        "Eccentricity": 0.0,
        "Inclination(deg)": 45.0,
        "Latitude(deg)": -18.71191493064938,
        "Longitude(deg)": -91.00579121217342,
        "Mean Anomaly(deg)": -153.25650501726727,
        "RAAN(deg)": 169.99032325268763,
        "Satellite Name": "Constellation 1 760",
        "Satellite Number": 760,
        "Semi-Major Axis(m)": 7083131.272910544,
        "Time(s)": 171
    },
    {
        "Altitude(m)": 707712.8436417549,
        "Argument of Periapsis(deg)": 0.010311057074209765,
        "Eccentricity": 0.0,
        "Inclination(deg)": 45.0,
        "Latitude(deg)": -18.752518330620962,
        "Longitude(deg)": -90.96219346916601,
        "Mean Anomaly(deg)": -153.1958038770174,
        "RAAN(deg)": 169.99026666352205,
        "Satellite Name": "Constellation 1 760",
        "Satellite Number": 760,
        "Semi-Major Axis(m)": 7083131.272910544,
        "Time(s)": 172
    },
    {
        "Altitude(m)": 707725.6845597671,
        "Argument of Periapsis(deg)": 0.010371005080455171,
        "Eccentricity": 0.0,
        "Inclination(deg)": 45.0,
        "Latitude(deg)": -18.793109292580226,
        "Longitude(deg)": -90.91857303260477,
        "Mean Anomaly(deg)": -153.13510273676744,
        "RAAN(deg)": 169.99021007435647,
        "Satellite Name": "Constellation 1 760",
        "Satellite Number": 760,
        "Semi-Major Axis(m)": 7083131.272910544,
        "Time(s)": 173
    },
    {
        "Altitude(m)": 707738.5348629699,
        "Argument of Periapsis(deg)": 0.010430953086700577,
        "Eccentricity": 0.0,
        "Inclination(deg)": 45.0,
        "Latitude(deg)": -18.833687782290518,
        "Longitude(deg)": -90.87492984554652,
        "Mean Anomaly(deg)": -153.0744015965176,
        "RAAN(deg)": 169.99015348519092,
        "Satellite Name": "Constellation 1 760",
        "Satellite Number": 760,
        "Semi-Major Axis(m)": 7083131.272910544,
        "Time(s)": 174
    },
    {
        "Altitude(m)": 707751.3945102467,
        "Argument of Periapsis(deg)": 0.010490901092945983,
        "Eccentricity": 0.0,
        "Inclination(deg)": 45.0,
        "Latitude(deg)": -18.874253765470918,
        "Longitude(deg)": -90.83126385101869,
        "Mean Anomaly(deg)": -153.01370045626766,
        "RAAN(deg)": 169.99009689602534,
        "Satellite Name": "Constellation 1 760",
        "Satellite Number": 760,
        "Semi-Major Axis(m)": 7083131.272910544,
        "Time(s)": 175
    },
    {
        "Altitude(m)": 707764.2634604212,
        "Argument of Periapsis(deg)": 0.010550849099191389,
        "Eccentricity": 0.0,
        "Inclination(deg)": 45.0,
        "Latitude(deg)": -18.914807207795878,
        "Longitude(deg)": -90.78757499201994,
        "Mean Anomaly(deg)": -152.95299931601775,
        "RAAN(deg)": 169.99004030685978,
        "Satellite Name": "Constellation 1 760",
        "Satellite Number": 760,
        "Semi-Major Axis(m)": 7083131.272910544,
        "Time(s)": 176
    },
    {
        "Altitude(m)": 707777.141672267,
        "Argument of Periapsis(deg)": 0.010610797105436795,
        "Eccentricity": 0.0,
        "Inclination(deg)": 45.0,
        "Latitude(deg)": -18.95534807489544,
        "Longitude(deg)": -90.74386321151972,
        "Mean Anomaly(deg)": -152.89229817576788,
        "RAAN(deg)": 169.98998371769423,
        "Satellite Name": "Constellation 1 760",
        "Satellite Number": 760,
        "Semi-Major Axis(m)": 7083131.272910544,
        "Time(s)": 177
    },
    {
        "Altitude(m)": 707790.02910451,
        "Argument of Periapsis(deg)": 0.0106707451116822,
        "Eccentricity": 0.0,
        "Inclination(deg)": 45.0,
        "Latitude(deg)": -18.995876332354722,
        "Longitude(deg)": -90.70012862055576,
        "Mean Anomaly(deg)": -152.83159703551797,
        "RAAN(deg)": 169.98992712852862,
        "Satellite Name": "Constellation 1 760",
        "Satellite Number": 760,
        "Semi-Major Axis(m)": 7083131.272910544,
        "Time(s)": 178
    },
    {
        "Altitude(m)": 707802.9257158259,
        "Argument of Periapsis(deg)": 0.010730693117927606,
        "Eccentricity": 0.0,
        "Inclination(deg)": 45.0,
        "Latitude(deg)": -19.036391945714346,
        "Longitude(deg)": -90.65637082584526,
        "Mean Anomaly(deg)": -152.7708958952681,
        "RAAN(deg)": 169.98987053936307,
        "Satellite Name": "Constellation 1 760",
        "Satellite Number": 760,
        "Semi-Major Axis(m)": 7083131.272910544,
        "Time(s)": 179
    },
    {
        "Altitude(m)": 707815.831464841,
        "Argument of Periapsis(deg)": 0.01079064112417301,
        "Eccentricity": 0.0,
        "Inclination(deg)": 45.0,
        "Latitude(deg)": -19.076894880469766,
        "Longitude(deg)": -90.6125899383681,
        "Mean Anomaly(deg)": -152.7101947550182,
        "RAAN(deg)": 169.9898139501975,
        "Satellite Name": "Constellation 1 760",
        "Satellite Number": 760,
        "Semi-Major Axis(m)": 7083131.272910544,
        "Time(s)": 180
    },
    {
        "Altitude(m)": 707828.7463101286,
        "Argument of Periapsis(deg)": 0.010850589130418416,
        "Eccentricity": 0.0,
        "Inclination(deg)": 45.0,
        "Latitude(deg)": -19.11738510207152,
        "Longitude(deg)": -90.56878590097801,
        "Mean Anomaly(deg)": -152.64949361476826,
        "RAAN(deg)": 169.98975736103193,
        "Satellite Name": "Constellation 1 760",
        "Satellite Number": 760,
        "Semi-Major Axis(m)": 7083131.272910544,
        "Time(s)": 181
    },
    {
        "Altitude(m)": 707841.6702102197,
        "Argument of Periapsis(deg)": 0.01091053713666382,
        "Eccentricity": 0.0,
        "Inclination(deg)": 45.0,
        "Latitude(deg)": -19.157862575924817,
        "Longitude(deg)": -90.52495865650027,
        "Mean Anomaly(deg)": -152.5887924745184,
        "RAAN(deg)": 169.98970077186638,
        "Satellite Name": "Constellation 1 760",
        "Satellite Number": 760,
        "Semi-Major Axis(m)": 7083131.272910544,
        "Time(s)": 182
    },
    {
        "Altitude(m)": 707854.6031235823,
        "Argument of Periapsis(deg)": 0.010970485142909228,
        "Eccentricity": 0.0,
        "Inclination(deg)": 45.0,
        "Latitude(deg)": -19.19832726738981,
        "Longitude(deg)": -90.48110814773108,
        "Mean Anomaly(deg)": -152.52809133426854,
        "RAAN(deg)": 169.98964418270077,
        "Satellite Name": "Constellation 1 760",
        "Satellite Number": 760,
        "Semi-Major Axis(m)": 7083131.272910544,
        "Time(s)": 183
    },
    {
        "Altitude(m)": 707867.54500865,
        "Argument of Periapsis(deg)": 0.011030433149154634,
        "Eccentricity": 0.0,
        "Inclination(deg)": 45.0,
        "Latitude(deg)": -19.238779141781254,
        "Longitude(deg)": -90.43723431743805,
        "Mean Anomaly(deg)": -152.46739019401858,
        "RAAN(deg)": 169.98958759353522,
        "Satellite Name": "Constellation 1 760",
        "Satellite Number": 760,
        "Semi-Major Axis(m)": 7083131.272910544,
        "Time(s)": 184
    },
    {
        "Altitude(m)": 707880.4958238035,
        "Argument of Periapsis(deg)": 0.01109038115540004,
        "Eccentricity": 0.0,
        "Inclination(deg)": 45.0,
        "Latitude(deg)": -19.27921816436812,
        "Longitude(deg)": -90.39333727645759,
        "Mean Anomaly(deg)": -152.40668905376867,
        "RAAN(deg)": 169.98953100436967,
        "Satellite Name": "Constellation 1 760",
        "Satellite Number": 760,
        "Semi-Major Axis(m)": 7083131.272910544,
        "Time(s)": 185
    },
    {
        "Altitude(m)": 707893.455527369,
        "Argument of Periapsis(deg)": 0.011150329161645444,
        "Eccentricity": 0.0,
        "Inclination(deg)": 45.0,
        "Latitude(deg)": -19.31964430037419,
        "Longitude(deg)": -90.3494166313057,
        "Mean Anomaly(deg)": -152.34598791351877,
        "RAAN(deg)": 169.98947441520409,
        "Satellite Name": "Constellation 1 760",
        "Satellite Number": 760,
        "Semi-Major Axis(m)": 7083131.272910544,
        "Time(s)": 186
    },
    {
        "Altitude(m)": 707906.4240776257,
        "Argument of Periapsis(deg)": 0.01121027716789085,
        "Eccentricity": 0.0,
        "Inclination(deg)": 45.0,
        "Latitude(deg)": -19.36005751497717,
        "Longitude(deg)": -90.30547249276157,
        "Mean Anomaly(deg)": -152.2852867732689,
        "RAAN(deg)": 169.9894178260385,
        "Satellite Name": "Constellation 1 760",
        "Satellite Number": 760,
        "Semi-Major Axis(m)": 7083131.272910544,
        "Time(s)": 187
    },
    {
        "Altitude(m)": 707919.4014328117,
        "Argument of Periapsis(deg)": 0.011270225174136258,
        "Eccentricity": 0.0,
        "Inclination(deg)": 45.0,
        "Latitude(deg)": -19.40045777330913,
        "Longitude(deg)": -90.26150480347866,
        "Mean Anomaly(deg)": -152.224585633019,
        "RAAN(deg)": 169.98936123687292,
        "Satellite Name": "Constellation 1 760",
        "Satellite Number": 760,
        "Semi-Major Axis(m)": 7083131.272910544,
        "Time(s)": 188
    },
    {
        "Altitude(m)": 707932.3875511081,
        "Argument of Periapsis(deg)": 0.011330173180381662,
        "Eccentricity": 0.0,
        "Inclination(deg)": 45.0,
        "Latitude(deg)": -19.440845040456075,
        "Longitude(deg)": -90.21751350608223,
        "Mean Anomaly(deg)": -152.16388449276909,
        "RAAN(deg)": 169.98930464770737,
        "Satellite Name": "Constellation 1 760",
        "Satellite Number": 760,
        "Semi-Major Axis(m)": 7083131.272910544,
        "Time(s)": 189
    }
]